CTC2_L_00676007-03
1 68157U 24346NP  26037.47799769  .00000000  00000+0  00000-0 0  9991
2 68157  65.0000 180.0000 0000000   0.0000 144.0000  1.91644752    18
CTC2_L_00676007-04
1 68158U 22712DK  26037.47799769  .00000000  00000+0  00000-0 0  9997
2 68158  65.0000 180.0000 0000000   0.0000 180.0000  1.91644752    19
CTC2_L_00676007-05
1 68159U 22559CX  26037.47799769  .00000000  00000+0  00000-0 0  9997
2 68159  65.0000 180.0000 0000000   0.0000 216.0000  1.91644752    10
CTC2_L_00676007-06
1 68160U 25352BQ  26037.47799769  .00000000  00000+0  00000-0 0  9993
2 68160  65.0000 180.0000 0000000   0.0000 252.0000  1.91644752    12
CTC2_L_00676007-07
1 68161U 24895DL  26037.47799769  .00000000  00000+0  00000-0 0  9995
2 68161  65.0000 180.0000 0000000   0.0000 288.0000  1.91644752    12
CTC2_L_00676007-08
1 68162U 26522QT  26037.47799769  .00000000  00000+0  00000-0 0  9995
2 68162  65.0000 180.0000 0000000   0.0000 324.0000  1.91644752    14
CTC2_L_00676007-09
1 68163U 25003IQ  26037.47799769  .00000000  00000+0  00000-0 0  9999
2 68163  65.0000 180.0000 0000000   0.0000   0.0000  1.91644752    16
CTC2_L_00676007-10
1 68164U 24584BW  26037.47799769  .00000000  00000+0  00000-0 0  9993
2 68164  65.0000 180.0000 0000000   0.0000  36.0000  1.91644752    16
CTC2_L_00676008-01
1 68165U 22671IB  26037.47799769  .00000000  00000+0  00000-0 0  9999
2 68165  65.0000 210.0000 0000000   0.0000  84.0000  1.91644752    14
CTC2_L_00676008-02
1 68166U 22854FY  26037.47799769  .00000000  00000+0  00000-0 0  9993
2 68166  65.0000 210.0000 0000000   0.0000 120.0000  1.91644752    16
CTC2_L_00676008-03
1 68167U 24126NQ  26037.47799769  .00000000  00000+0  00000-0 0  9998
2 68167  65.0000 210.0000 0000000   0.0000 156.0000  1.91644752    16
CTC2_L_00676008-04
1 68168U 24650IJ  26037.47799769  .00000000  00000+0  00000-0 0  9991
2 68168  65.0000 210.0000 0000000   0.0000 192.0000  1.91644752    17
CTC2_L_00676008-05
1 68169U 22292IL  26037.47799769  .00000000  00000+0  00000-0 0  9992
2 68169  65.0000 210.0000 0000000   0.0000 228.0000  1.91644752    18
CTC2_L_00676008-06
1 68170U 22390XG  26037.47799769  .00000000  00000+0  00000-0 0  9993
2 68170  65.0000 210.0000 0000000   0.0000 264.0000  1.91644752    10
CTC2_L_00676008-07
1 68171U 26846NI  26037.47799769  .00000000  00000+0  00000-0 0  9994
2 68171  65.0000 210.0000 0000000   0.0000 300.0000  1.91644752    12
CTC2_L_00676008-08
1 68172U 26794ZZ  26037.47799769  .00000000  00000+0  00000-0 0  9997
2 68172  65.0000 210.0000 0000000   0.0000 336.0000  1.91644752    12
CTC2_L_00676008-09
1 68173U 22867FV  26037.47799769  .00000000  00000+0  00000-0 0  9995
2 68173  65.0000 210.0000 0000000   0.0000  12.0000  1.91644752    14
CTC2_L_00676008-10
1 68174U 25271ED  26037.47799769  .00000000  00000+0  00000-0 0  9998
2 68174  65.0000 210.0000 0000000   0.0000  48.0000  1.91644752    14
CTC2_L_00676009-01
1 68175U 23865IE  26037.47799769  .00000000  00000+0  00000-0 0  9996
2 68175  65.0000 240.0000 0000000   0.0000  96.0000  1.91644752    11
CTC2_L_00676009-02
1 68176U 24530VK  26037.47799769  .00000000  00000+0  00000-0 0  9997
2 68176  65.0000 240.0000 0000000   0.0000 132.0000  1.91644752    13
CTC2_L_00676009-03
1 68177U 24755TH  26037.47799769  .00000000  00000+0  00000-0 0  9997
2 68177  65.0000 240.0000 0000000   0.0000 168.0000  1.91644752    13
CTC2_L_00676009-04
1 68178U 26207YL  26037.47799769  .00000000  00000+0  00000-0 0  9992
2 68178  65.0000 240.0000 0000000   0.0000 204.0000  1.91644752    15
CTC2_L_00676009-05
1 68179U 26302XX  26037.47799769  .00000000  00000+0  00000-0 0  9999
2 68179  65.0000 240.0000 0000000   0.0000 240.0000  1.91644752    16
CTC2_L_00676009-06
1 68180U 23205GJ  26037.47799769  .00000000  00000+0  00000-0 0  9990
2 68180  65.0000 240.0000 0000000   0.0000 276.0000  1.91644752    17
CTC2_L_00676009-07
1 68181U 23805YN  26037.47799769  .00000000  00000+0  00000-0 0  9997
2 68181  65.0000 240.0000 0000000   0.0000 312.0000  1.91644752    19
CTC2_L_00676009-08
1 68182U 24241RB  26037.47799769  .00000000  00000+0  00000-0 0  9993
2 68182  65.0000 240.0000 0000000   0.0000 348.0000  1.91644752    19
CTC2_L_00676009-09
1 68183U 23881XA  26037.47799769  .00000000  00000+0  00000-0 0  9993
2 68183  65.0000 240.0000 0000000   0.0000  24.0000  1.91644752    11
CTC2_L_00676009-10
1 68184U 25179GS  26037.47799769  .00000000  00000+0  00000-0 0  9996
2 68184  65.0000 240.0000 0000000   0.0000  60.0000  1.91644752    12
CTC2_L_00676010-01
1 68185U 23536CT  26037.47799769  .00000000  00000+0  00000-0 0  9992
2 68185  65.0000 270.0000 0000000   0.0000 108.0000  1.91644752    19
CTC2_L_00676010-02
1 68186U 23043RD  26037.47799769  .00000000  00000+0  00000-0 0  9996
2 68186  65.0000 270.0000 0000000   0.0000 144.0000  1.91644752    10
CTC2_L_00676010-03
1 68187U 24961FB  26037.47799769  .00000000  00000+0  00000-0 0  9997
2 68187  65.0000 270.0000 0000000   0.0000 180.0000  1.91644752    11
CTC2_L_00676010-04
1 68188U 25908VT  26037.47799769  .00000000  00000+0  00000-0 0  9990
2 68188  65.0000 270.0000 0000000   0.0000 216.0000  1.91644752    12
CTC2_L_00676010-05
1 68189U 23221JU  26037.47799769  .00000000  00000+0  00000-0 0  9997
2 68189  65.0000 270.0000 0000000   0.0000 252.0000  1.91644752    13
CTC2_L_00676010-06
1 68190U 22476GW  26037.47799769  .00000000  00000+0  00000-0 0  9990
2 68190  65.0000 270.0000 0000000   0.0000 288.0000  1.91644752    14
CTC2_L_00676010-07
1 68191U 24269FB  26037.47799769  .00000000  00000+0  00000-0 0  9993
2 68191  65.0000 270.0000 0000000   0.0000 324.0000  1.91644752    16
CTC2_L_00676010-08
1 68192U 24794FC  26037.47799769  .00000000  00000+0  00000-0 0  9997
2 68192  65.0000 270.0000 0000000   0.0000   0.0000  1.91644752    18
CTC2_L_00676010-09
1 68193U 23235UN  26037.47799769  .00000000  00000+0  00000-0 0  9997
2 68193  65.0000 270.0000 0000000   0.0000  36.0000  1.91644752    18
CTC2_L_00676010-10
1 68194U 24383XO  26037.47799769  .00000000  00000+0  00000-0 0  9993
2 68194  65.0000 270.0000 0000000   0.0000  72.0000  1.91644752    19
CTC2_L_00676011-01
1 68195U 23696QR  26037.47799769  .00000000  00000+0  00000-0 0  9990
2 68195  65.0000 300.0000 0000000   0.0000 120.0000  1.91644752    18
CTC2_L_00676011-02
1 68196U 26390PA  26037.47799769  .00000000  00000+0  00000-0 0  9995
2 68196  65.0000 300.0000 0000000   0.0000 156.0000  1.91644752    18
CTC2_L_00676011-03
1 68197U 22220QH  26037.47799769  .00000000  00000+0  00000-0 0  9994
2 68197  65.0000 300.0000 0000000   0.0000 192.0000  1.91644752    19
CTC2_L_00676011-04
1 68198U 23306IT  26037.47799769  .00000000  00000+0  00000-0 0  9991
2 68198  65.0000 300.0000 0000000   0.0000 228.0000  1.91644752    10
CTC2_L_00676011-05
1 68199U 26685ZF  26037.47799769  .00000000  00000+0  00000-0 0  9995
2 68199  65.0000 300.0000 0000000   0.0000 264.0000  1.91644752    11
CTC2_L_00676011-06
1 68200U 26967RX  26037.47799769  .00000000  00000+0  00000-0 0  9991
2 68200  65.0000 300.0000 0000000   0.0000 300.0000  1.91644752    15
CTC2_L_00676011-07
1 68201U 24145BR  26037.47799769  .00000000  00000+0  00000-0 0  9998
2 68201  65.0000 300.0000 0000000   0.0000 336.0000  1.91644752    15
CTC2_L_00676011-08
1 68202U 22899MM  26037.47799769  .00000000  00000+0  00000-0 0  9993
2 68202  65.0000 300.0000 0000000   0.0000  12.0000  1.91644752    17
CTC2_L_00676011-09
1 68203U 24325ID  26037.47799769  .00000000  00000+0  00000-0 0  9990
2 68203  65.0000 300.0000 0000000   0.0000  48.0000  1.91644752    17
CTC2_L_00676011-10
1 68204U 22924NS  26037.47799769  .00000000  00000+0  00000-0 0  9994
2 68204  65.0000 300.0000 0000000   0.0000  84.0000  1.91644752    18
CTC2_L_00676012-01
1 68205U 25114UG  26037.47799769  .00000000  00000+0  00000-0 0  9999
2 68205  65.0000 330.0000 0000000   0.0000 132.0000  1.91644752    16
CTC2_L_00676012-02
1 68206U 26115IX  26037.47799769  .00000000  00000+0  00000-0 0  9992
2 68206  65.0000 330.0000 0000000   0.0000 168.0000  1.91644752    16
CTC2_L_00676012-03
1 68207U 24239BL  26037.47799769  .00000000  00000+0  00000-0 0  9998
2 68207  65.0000 330.0000 0000000   0.0000 204.0000  1.91644752    18
CTC2_L_00676012-04
1 68208U 23902NX  26037.47799769  .00000000  00000+0  00000-0 0  9995
2 68208  65.0000 330.0000 0000000   0.0000 240.0000  1.91644752    19
CTC2_L_00676012-05
1 68209U 25116CT  26037.47799769  .00000000  00000+0  00000-0 0  9995
2 68209  65.0000 330.0000 0000000   0.0000 276.0000  1.91644752    19
CTC2_L_00676012-06
1 68210U 24600OD  26037.47799769  .00000000  00000+0  00000-0 0  9994
2 68210  65.0000 330.0000 0000000   0.0000 312.0000  1.91644752    12
CTC2_L_00676012-07
1 68211U 26388ZH  26037.47799769  .00000000  00000+0  00000-0 0  9990
2 68211  65.0000 330.0000 0000000   0.0000 348.0000  1.91644752    12
CTC2_L_00676012-08
1 68212U 23735DY  26037.47799769  .00000000  00000+0  00000-0 0  9994
2 68212  65.0000 330.0000 0000000   0.0000  24.0000  1.91644752    14
CTC2_L_00676012-09
1 68213U 24583OM  26037.47799769  .00000000  00000+0  00000-0 0  9997
2 68213  65.0000 330.0000 0000000   0.0000  60.0000  1.91644752    15
CTC2_L_00676012-10
1 68214U 22653RQ  26037.47799769  .00000000  00000+0  00000-0 0  9994
2 68214  65.0000 330.0000 0000000   0.0000  96.0000  1.91644752    15
